SL-16 R/B               
1 22566U 93016B   26063.47914962  .00000314  00000+0  18542-3 0  9999
2 22566  71.0060 226.1247 0011423 321.4318  38.5988 14.15305908701436
COSMOS 2242             
1 22626U 93024A   26063.08631526  .00002348  00000+0  20393-3 0  9990
2 22626  82.5154 272.0778 0015557 328.9179  31.1121 14.96522155779552
SL-16 R/B               
1 22803U 93059B   26063.32447447  .00000001  00000+0  24136-4 0  9993
2 22803  70.9921  22.4393 0018779 224.1741 135.7884 14.17232330678778
ARIANE 40 R/B           
1 22830U 93061H   26063.18195960  .00000312  00000+0  13004-3 0  9996
2 22830  98.4928 132.1781 0009656 303.2942  56.7316 14.32857837693317
COSMOS 2278             
1 23087U 94023A   26063.50561038  .00000308  00000+0  18561-3 0  9997
2 23087  71.0543 185.9417 0007692  23.7678 336.3799 14.14376329644075
SL-16 R/B               
1 23088U 94023B   26063.48371221 -.00000117  00000+0 -35787-4 0  9998
2 23088  70.9987  81.8212 0005642 290.7503  69.3015 14.15013380645351
SL-16 R/B               
1 23343U 94074B   26063.11317750  .00000712  00000+0  10210-3 0  9997
2 23343  97.7116  94.1567 0005417 232.0282 195.5039 14.79400789686423
SL-16 R/B               
1 23405U 94077B   26063.25536438 -.00000230  00000+0 -93246-4 0  9998
2 23405  70.9851   3.9204 0003395 219.9110 140.1763 14.15562115615462
ARIANE 40+ R/B          
1 23561U 95021B   26063.18078909  .00000433  00000+0  15201-3 0  9994
2 23561  98.4508 134.7378 0007402 151.3190 234.2081 14.39768032618456
SL-16 R/B               
1 23705U 95058B   26063.47409965  .00000039  00000+0  44263-4 0  9999
2 23705  71.0211 191.2039 0010999 135.0151 225.1865 14.15492887567118
SL-16 R/B               
1 24298U 96051B   26063.50030014  .00000105  00000+0  83516-4 0  9998
2 24298  70.7597 186.2217 0015547 155.7703 204.4151 14.12414119520911
ORBVIEW 2 (SEASTAR)     
1 24883U 97037A   26063.39933558  .00000508  00000+0  19297-3 0  9996
2 24883  98.8556 227.5711 0003172  82.5160 277.6384 14.35490740507712
